OBJECT_NAME,OBJECT_ID,EPOCH,MEAN_MOTION,ECCENTRICITY,INCLINATION,RA_OF_ASC_NODE,ARG_OF_PERICENTER,MEAN_ANOMALY,EPHEMERIS_TYPE,CLASSIFICATION_TYPE,NORAD_CAT_ID,ELEMENT_SET_NO,REV_AT_EPOCH,BSTAR,MEAN_MOTION_DOT,MEAN_MOTION_DDOT
SALSAT,2020-068K,2026-06-04T23:29:13.611264,15.29615280,.0009245,97.8851,158.3021,356.4519,3.6652,0,U,46495,999,31349,.313E-3,.8911E-4,0
ICEYE-X6,2020-068M,2026-06-05T05:16:23.958336,15.04453727,.0008609,98.0967,149.3209,123.1263,237.0789,0,U,46497,999,31143,.21863E-3,.2992E-4,0
NETSAT-4,2020-068U,2026-06-05T00:04:14.689920,15.43442394,.0005519,97.8608,163.2689,25.5578,334.5940,0,U,46504,999,31389,.44237E-3,.19726E-3,0
NETSAT-3,2020-068V,2026-06-04T23:59:42.680256,15.42241953,.0005896,97.8657,161.4976,41.9409,318.2287,0,U,46505,999,31380,.50249E-3,.21542E-3,0
NETSAT-1,2020-068W,2026-06-04T05:22:21.073728,15.34317185,.000637,97.8744,155.1432,67.0325,293.1588,0,U,46506,999,31331,.45524E-3,.15061E-3,0
NETSAT-2,2020-068X,2026-06-04T23:52:14.616768,15.45455402,.0005051,97.8620,163.1111,59.0230,301.1513,0,U,46507,999,31385,.56239E-3,.269E-3,0
TIANQI-6,2020-076D,2026-06-04T06:53:10.361472,15.07092432,.00093464,34.9979,127.6312,52.7586,307.3975,0,U,46810,999,30663,.29309804E-3,.4468E-4,0
KSM1-C,2020-081B,2026-06-05T04:35:17.914848,15.26530164,.0000948,36.8935,132.9895,172.0518,188.0246,0,U,46906,999,30733,.32747E-3,.867E-4,0
KSM1-D,2020-081C,2026-06-05T05:49:17.488992,15.24542844,.0003674,36.8947,141.4505,182.5186,177.5545,0,U,46907,999,30727,.27974E-3,.6957E-4,0
KSM1-A,2020-081H,2026-06-05T04:31:07.432608,15.25759136,.0004366,36.8944,135.3113,231.2918,128.7441,0,U,46912,999,30734,.30751E-3,.7947E-4,0
R2,2020-081J,2026-06-01T01:57:08.509536,15.25182244,.00068263,36.8961,160.5241,158.1099,201.9942,0,U,46913,999,30952,.346666E-3,.882E-4,0
KSM1-B,2020-081K,2026-06-05T05:51:54.103680,15.24339959,.0005593,36.9001,142.0175,193.7896,166.2701,0,U,46914,999,31036,.33007E-3,.8179E-4,0
GONETS-M 20,2020-091A,2026-06-05T04:09:08.013024,12.42893177,.0020617,82.5040,309.9053,204.2466,155.7645,0,U,47227,999,24958,.12069E-3,.27E-6,0
GONETS-M 21,2020-091B,2026-06-05T03:31:24.721824,12.42886206,.0014219,82.4964,308.6359,217.7958,142.2124,0,U,47228,999,24957,.69707E-3,.106E-5,0
GONETS-M 22,2020-091C,2026-06-05T04:48:39.604032,12.42892046,.0021544,82.5022,309.4955,199.5260,160.4997,0,U,47229,999,24953,-.32202E-4,.5E-7,0
CUBEL,2021-006AM,2026-06-05T02:00:59.180256,15.40817337,.0005971,97.2332,206.7852,200.9138,159.1866,0,U,47448,999,29789,.20706E-3,.8408E-4,0
ARKTIKA-M 1,2021-016A,2026-06-02T00:56:25.095840,2.00628509,.72832396,63.2379,59.8266,269.8643,14.6915,0,U,47719,999,3848,0,-.2E-5,0
STARLINK-2342,2021-021Z,2026-06-05T04:00:03.000096,15.71906405,.0001488,53.1551,208.1009,90.1314,33.0565,0,U,47883,999,592,.85287E-2,.1264795E-1,0
GRUS-1B,2021-022C,2026-06-05T03:51:56.318400,14.98963191,.0016675,97.5399,39.7530,10.0405,350.1148,0,U,47934,999,28409,.20146E-3,.2388E-4,0
UNISAT-7,2021-022P,2026-06-04T16:28:09.825312,15.40116887,.00111647,97.3899,60.4828,115.2370,245.0035,0,U,47945,999,28793,.39288978E-3,.15697E-3,0
GLOBAL-9,2021-023G,2026-06-03T22:42:09.984096,15.46052590,.0004941,44.9824,324.9238,252.5688,107.4661,0,U,47971,999,29289,.48948485E-3,.24185E-3,0
AII-BRAVO,2021-034C,2026-06-04T17:00:06.192000,15.03371022,.0004992,97.5602,210.9026,313.0854,46.9954,0,U,48270,999,27774,.4203E-3,.5654E-4,0
TYVAK-182A,2021-034D,2026-06-04T16:58:11.046720,15.06050084,.0006252,97.5726,214.8417,26.9391,333.2160,0,U,48271,999,27795,.44307E-3,.641E-4,0
CSS (TIANHE),2021-035A,2026-06-05T01:46:04.269792,15.60275999,.0009569,41.4694,35.6942,344.8796,15.1755,0,U,48274,999,29127,.31558E-3,.26328E-3,0
TYVAK-0130,2021-041BF,2026-06-05T01:43:07.695840,15.27388910,.0011161,52.9947,82.3444,127.7328,232.4683,0,U,48606,999,27853,.371E-3,.9758E-4,0
HAIYANG-2D,2021-043A,2026-06-05T05:15:44.009568,13.83375580,.0011353,65.9994,334.4963,270.4299,89.5468,0,U,48621,999,25489,.1397E-3,.73E-6,0
2021-050D,2021-050D,2026-06-05T04:23:25.003392,15.23208328,.0004369,97.3338,232.4920,321.7248,38.3679,0,U,48843,999,27713,.27628E-3,.6469E-4,0
TYVAK-0173,2021-059P,2026-06-05T01:02:12.496416,14.81850445,.0010948,96.0083,235.4186,75.0442,285.1987,0,U,48892,999,26644,.30237E-3,.236E-4,0
