SALSAT                  
1 46495U 20068K   26155.97862976  .00008911  00000+0  31300-3 0  9995
2 46495  97.8851 158.3021 0009245 356.4519   3.6652 15.29615280313492
ICEYE-X6                
1 46497U 20068M   26156.21972174  .00002992  00000+0  21863-3 0  9993
2 46497  98.0967 149.3209 0008609 123.1263 237.0789 15.04453727311436
NETSAT-4                
1 46504U 20068U   26156.00294780  .00019726  00000+0  44237-3 0  9992
2 46504  97.8608 163.2689 0005519  25.5578 334.5940 15.43442394313897
NETSAT-3                
1 46505U 20068V   26155.99979954  .00021542  00000+0  50249-3 0  9992
2 46505  97.8657 161.4976 0005896  41.9409 318.2287 15.42241953313805
NETSAT-1                
1 46506U 20068W   26155.22385502  .00015061  00000+0  45524-3 0  9998
2 46506  97.8744 155.1432 0006370  67.0325 293.1588 15.34317185313317
NETSAT-2                
1 46507U 20068X   26155.99461362  .00026900  00000+0  56239-3 0  9991
2 46507  97.8620 163.1111 0005051  59.0230 301.1513 15.45455402313859
TIANQI-6                
1 46810U 20076D   26155.28692548  .00004468  00000+0  29310-3 0  9996
2 46810  34.9979 127.6312 0009346  52.7586 307.3975 15.07092432306634
KSM1-C                  
1 46906U 20081B   26156.19117957  .00008670  00000+0  32747-3 0  9992
2 46906  36.8935 132.9895 0000948 172.0518 188.0246 15.26530164307331
KSM1-D                  
1 46907U 20081C   26156.24256353  .00006957  00000+0  27974-3 0  9995
2 46907  36.8947 141.4505 0003674 182.5186 177.5545 15.24542844307278
KSM1-A                  
1 46912U 20081H   26156.18828047  .00007947  00000+0  30751-3 0  9996
2 46912  36.8944 135.3113 0004366 231.2918 128.7441 15.25759136307348
R2                      
1 46913U 20081J   26152.08134849  .00008820  00000+0  34667-3 0  9993
2 46913  36.8961 160.5241 0006826 158.1099 201.9942 15.25182244309522
KSM1-B                  
1 46914U 20081K   26156.24437620  .00008179  00000+0  33007-3 0  9993
2 46914  36.9001 142.0175 0005593 193.7896 166.2701 15.24339959310366
GONETS-M 20             
1 47227U 20091A   26156.17300941  .00000027  00000+0  12069-3 0  9998
2 47227  82.5040 309.9053 0020617 204.2466 155.7645 12.42893177249587
GONETS-M 21             
1 47228U 20091B   26156.14681391  .00000106  00000+0  69707-3 0  9996
2 47228  82.4964 308.6359 0014219 217.7958 142.2124 12.42886206249570
GONETS-M 22             
1 47229U 20091C   26156.20045838  .00000005  00000+0 -32202-4 0  9994
2 47229  82.5022 309.4955 0021544 199.5260 160.4997 12.42892046249535
CUBEL                   
1 47448U 21006AM  26156.08401829  .00008408  00000+0  20706-3 0  9995
2 47448  97.2332 206.7852 0005971 200.9138 159.1866 15.40817337297890
ARKTIKA-M 1             
1 47719U 21016A   26153.03917935 -.00000200  00000+0  00000+0 0  9993
2 47719  63.2379  59.8266 7283239 269.8643  14.6915  2.00628509 38489
STARLINK-2342           
1 47883U 21021Z   26156.16670139  .01264795  00000+0  85287-2 0  9994
2 47883  53.1551 208.1009 0001488  90.1314  33.0565 15.71906405  5927
GRUS-1B                 
1 47934U 21022C   26156.16106850  .00002388  00000+0  20146-3 0  9997
2 47934  97.5399  39.7530 0016675  10.0405 350.1148 14.98963191284099
UNISAT-7                
1 47945U 21022P   26155.68622483  .00015697  00000+0  39289-3 0  9995
2 47945  97.3899  60.4828 0011164 115.2370 245.0035 15.40116887287935
GLOBAL-9                
1 47971U 21023G   26154.94594889  .00024185  00000+0  48948-3 0  9995
2 47971  44.9824 324.9238 0004941 252.5688 107.4661 15.46052590292898
AII-BRAVO               
1 48270U 21034C   26155.70840500  .00005654  00000+0  42030-3 0  9995
2 48270  97.5602 210.9026 0004992 313.0854  46.9954 15.03371022277748
TYVAK-182A              
1 48271U 21034D   26155.70707230  .00006410  00000+0  44307-3 0  9998
2 48271  97.5726 214.8417 0006252  26.9391 333.2160 15.06050084277959
CSS (TIANHE)            
1 48274U 21035A   26156.07366053  .00026328  00000+0  31558-3 0  9991
2 48274  41.4694  35.6942 0009569 344.8796  15.1755 15.60275999291272
TYVAK-0130              
1 48606U 21041BF  26156.07161685  .00009758  00000+0  37100-3 0  9998
2 48606  52.9947  82.3444 0011161 127.7328 232.4683 15.27388910278534
HAIYANG-2D              
1 48621U 21043A   26156.21925937  .00000073  00000+0  13970-3 0  9991
2 48621  65.9994 334.4963 0011353 270.4299  89.5468 13.83375580254894
2021-050D               
1 48843U 21050D   26156.18292828  .00006469  00000+0  27628-3 0  9997
2 48843  97.3338 232.4920 0004369 321.7248  38.3679 15.23208328277133
TYVAK-0173              
1 48892U 21059P   26156.04320019  .00002360  00000+0  30237-3 0  9995
2 48892  96.0083 235.4186 0010948  75.0442 285.1987 14.81850445266444
